DELTA 2 R/B(1)          
1 20453U 90008B   26054.63458258  .00065176  00000+0  81903-3 0  9997
2 20453  35.6036 266.9494 0088291 127.7744 233.1028 15.53881010923947
COSMOS 2058             
1 20465U 90010A   26054.47871034  .00004612  00000+0  27287-3 0  9999
2 20465  82.4673  61.4283 0010399  31.4274 328.7575 15.11180628940098
SL-14 R/B               
1 20466U 90010B   26054.59050840  .00000366  00000+0  41448-4 0  9995
2 20466  82.5001 280.6353 0019567 350.8551   9.2305 14.83555585926395
SL-14 R/B               
1 20511U 90018B   26054.45973128  .00000492  00000+0  58700-4 0  9991
2 20511  82.5181 236.3921 0017328 135.4311 224.8301 14.82127526920471
HST                     
1 20580U 90037B   26054.52133185  .00008526  00000+0  28412-3 0  9999
2 20580  28.4686 136.6340 0001151 329.6206  30.4323 15.29236342771142
SL-16 R/B               
1 20625U 90046B   26054.70023380  .00000054  00000+0  52718-4 0  9999
2 20625  71.0017 327.2937 0015754 318.8127  41.1805 14.15015127846417
COSMOS 2084             
1 20663U 90055A   26054.64161614  .00003121  00000+0  22877-3 0  9997
2 20663  62.7913  23.4860 0019245 186.6711 173.4136 15.05550091934205
SL-6 R/B(2)             
1 20666U 90055D   26054.40563621  .00002285  00000+0  18040-3 0  9995
2 20666  62.7833 302.4244 0022551 343.3203  16.7152 15.03519922936044
SL-8 R/B                
1 20775U 90078B   26054.32739613  .00018511  00000+0  54329-3 0  9997
2 20775  82.9004 264.2235 0365317  62.1742 301.5993 14.88546538807161
SL-8 R/B                
1 21088U 91006B   26054.84502338  .00000060  00000+0  44318-4 0  9994
2 21088  82.9458 180.3377 0023661  75.4238  93.0343 13.77492748762169
OKEAN-3                 
1 21397U 91039A   26054.31540979  .00003947  00000+0  27793-3 0  9992
2 21397  82.5205 350.7657 0015076  25.9068 334.2910 15.04691593862874
COSMOS 2151             
1 21422U 91042A   26054.74196780  .00001609  00000+0  12688-3 0  9999
2 21422  82.4941  97.1332 0014093 105.3002 254.9781 15.00046374861106
