CCSDS_OMM_VERS = 2.0
CREATION_DATE  = 
ORIGINATOR     = 

OBJECT_NAME    = DELTA 2 R/B(1)
OBJECT_ID      = 1990-008B
CENTER_NAME    = EARTH
REF_FRAME      = TEME
TIME_SYSTEM    = UTC
MEAN_ELEMENT_THEORY = SGP/SGP4

EPOCH          = 2026-02-23T15:13:47.934912
MEAN_MOTION    = 15.53881010
ECCENTRICITY   = .0088291
INCLINATION    = 35.6036
RA_OF_ASC_NODE = 266.9494
ARG_OF_PERICENTER = 127.7744
MEAN_ANOMALY   = 233.1028

EPHEMERIS_TYPE = 0
CLASSIFICATION_TYPE = U
NORAD_CAT_ID   = 20453
ELEMENT_SET_NO = 999
REV_AT_EPOCH   = 92394
BSTAR          = .81903E-3
MEAN_MOTION_DOT = .65176E-3
MEAN_MOTION_DDOT = 0

CCSDS_OMM_VERS = 2.0
CREATION_DATE  = 
ORIGINATOR     = 

OBJECT_NAME    = COSMOS 2058
OBJECT_ID      = 1990-010A
CENTER_NAME    = EARTH
REF_FRAME      = TEME
TIME_SYSTEM    = UTC
MEAN_ELEMENT_THEORY = SGP/SGP4

EPOCH          = 2026-02-23T11:29:20.573376
MEAN_MOTION    = 15.11180628
ECCENTRICITY   = .0010399
INCLINATION    = 82.4673
RA_OF_ASC_NODE = 61.4283
ARG_OF_PERICENTER = 31.4274
MEAN_ANOMALY   = 328.7575

EPHEMERIS_TYPE = 0
CLASSIFICATION_TYPE = U
NORAD_CAT_ID   = 20465
ELEMENT_SET_NO = 999
REV_AT_EPOCH   = 94009
BSTAR          = .27286649E-3
MEAN_MOTION_DOT = .4612E-4
MEAN_MOTION_DDOT = 0

CCSDS_OMM_VERS = 2.0
CREATION_DATE  = 
ORIGINATOR     = 

OBJECT_NAME    = SL-14 R/B
OBJECT_ID      = 1990-010B
CENTER_NAME    = EARTH
REF_FRAME      = TEME
TIME_SYSTEM    = UTC
MEAN_ELEMENT_THEORY = SGP/SGP4

EPOCH          = 2026-02-23T14:10:19.925760
MEAN_MOTION    = 14.83555585
ECCENTRICITY   = .0019567
INCLINATION    = 82.5001
RA_OF_ASC_NODE = 280.6353
ARG_OF_PERICENTER = 350.8551
MEAN_ANOMALY   = 9.2305

EPHEMERIS_TYPE = 0
CLASSIFICATION_TYPE = U
NORAD_CAT_ID   = 20466
ELEMENT_SET_NO = 999
REV_AT_EPOCH   = 92639
BSTAR          = .41448E-4
MEAN_MOTION_DOT = .366E-5
MEAN_MOTION_DDOT = 0

CCSDS_OMM_VERS = 2.0
CREATION_DATE  = 
ORIGINATOR     = 

OBJECT_NAME    = SL-14 R/B
OBJECT_ID      = 1990-018B
CENTER_NAME    = EARTH
REF_FRAME      = TEME
TIME_SYSTEM    = UTC
MEAN_ELEMENT_THEORY = SGP/SGP4

EPOCH          = 2026-02-23T11:02:00.782592
MEAN_MOTION    = 14.82127526
ECCENTRICITY   = .00173283
INCLINATION    = 82.5181
RA_OF_ASC_NODE = 236.3921
ARG_OF_PERICENTER = 135.4311
MEAN_ANOMALY   = 224.8301

EPHEMERIS_TYPE = 0
CLASSIFICATION_TYPE = U
NORAD_CAT_ID   = 20511
ELEMENT_SET_NO = 999
REV_AT_EPOCH   = 92047
BSTAR          = .58700354E-4
MEAN_MOTION_DOT = .492E-5
MEAN_MOTION_DDOT = 0

CCSDS_OMM_VERS = 2.0
CREATION_DATE  = 
ORIGINATOR     = 

OBJECT_NAME    = HST
OBJECT_ID      = 1990-037B
CENTER_NAME    = EARTH
REF_FRAME      = TEME
TIME_SYSTEM    = UTC
MEAN_ELEMENT_THEORY = SGP/SGP4

EPOCH          = 2026-02-23T12:30:43.071840
MEAN_MOTION    = 15.29236342
ECCENTRICITY   = .0001151
INCLINATION    = 28.4686
RA_OF_ASC_NODE = 136.6340
ARG_OF_PERICENTER = 329.6206
MEAN_ANOMALY   = 30.4323

EPHEMERIS_TYPE = 0
CLASSIFICATION_TYPE = U
NORAD_CAT_ID   = 20580
ELEMENT_SET_NO = 999
REV_AT_EPOCH   = 77114
BSTAR          = .28412E-3
MEAN_MOTION_DOT = .8526E-4
MEAN_MOTION_DDOT = 0

CCSDS_OMM_VERS = 2.0
CREATION_DATE  = 
ORIGINATOR     = 

OBJECT_NAME    = SL-16 R/B
OBJECT_ID      = 1990-046B
CENTER_NAME    = EARTH
REF_FRAME      = TEME
TIME_SYSTEM    = UTC
MEAN_ELEMENT_THEORY = SGP/SGP4

EPOCH          = 2026-02-23T16:48:20.200320
MEAN_MOTION    = 14.15015127
ECCENTRICITY   = .0015754
INCLINATION    = 71.0017
RA_OF_ASC_NODE = 327.2937
ARG_OF_PERICENTER = 318.8127
MEAN_ANOMALY   = 41.1805

EPHEMERIS_TYPE = 0
CLASSIFICATION_TYPE = U
NORAD_CAT_ID   = 20625
ELEMENT_SET_NO = 999
REV_AT_EPOCH   = 84641
BSTAR          = .52718E-4
MEAN_MOTION_DOT = .54E-6
MEAN_MOTION_DDOT = 0

CCSDS_OMM_VERS = 2.0
CREATION_DATE  = 
ORIGINATOR     = 

OBJECT_NAME    = COSMOS 2084
OBJECT_ID      = 1990-055A
CENTER_NAME    = EARTH
REF_FRAME      = TEME
TIME_SYSTEM    = UTC
MEAN_ELEMENT_THEORY = SGP/SGP4

EPOCH          = 2026-02-23T15:23:55.634496
MEAN_MOTION    = 15.05550091
ECCENTRICITY   = .0019245
INCLINATION    = 62.7913
RA_OF_ASC_NODE = 23.4860
ARG_OF_PERICENTER = 186.6711
MEAN_ANOMALY   = 173.4136

EPHEMERIS_TYPE = 0
CLASSIFICATION_TYPE = U
NORAD_CAT_ID   = 20663
ELEMENT_SET_NO = 999
REV_AT_EPOCH   = 93420
BSTAR          = .22877E-3
MEAN_MOTION_DOT = .3121E-4
MEAN_MOTION_DDOT = 0

CCSDS_OMM_VERS = 2.0
CREATION_DATE  = 
ORIGINATOR     = 

OBJECT_NAME    = SL-6 R/B(2)
OBJECT_ID      = 1990-055D
CENTER_NAME    = EARTH
REF_FRAME      = TEME
TIME_SYSTEM    = UTC
MEAN_ELEMENT_THEORY = SGP/SGP4

EPOCH          = 2026-02-23T09:44:06.968544
MEAN_MOTION    = 15.03519922
ECCENTRICITY   = .00225513
INCLINATION    = 62.7833
RA_OF_ASC_NODE = 302.4244
ARG_OF_PERICENTER = 343.3203
MEAN_ANOMALY   = 16.7152

EPHEMERIS_TYPE = 0
CLASSIFICATION_TYPE = U
NORAD_CAT_ID   = 20666
ELEMENT_SET_NO = 999
REV_AT_EPOCH   = 93604
BSTAR          = .18040349E-3
MEAN_MOTION_DOT = .2285E-4
MEAN_MOTION_DDOT = 0

CCSDS_OMM_VERS = 2.0
CREATION_DATE  = 
ORIGINATOR     = 

OBJECT_NAME    = SL-8 R/B
OBJECT_ID      = 1990-078B
CENTER_NAME    = EARTH
REF_FRAME      = TEME
TIME_SYSTEM    = UTC
MEAN_ELEMENT_THEORY = SGP/SGP4

EPOCH          = 2026-02-23T07:51:27.025632
MEAN_MOTION    = 14.88546538
ECCENTRICITY   = .03653179
INCLINATION    = 82.9004
RA_OF_ASC_NODE = 264.2235
ARG_OF_PERICENTER = 62.1742
MEAN_ANOMALY   = 301.5993

EPHEMERIS_TYPE = 0
CLASSIFICATION_TYPE = U
NORAD_CAT_ID   = 20775
ELEMENT_SET_NO = 999
REV_AT_EPOCH   = 80716
BSTAR          = .54329148E-3
MEAN_MOTION_DOT = .18511E-3
MEAN_MOTION_DDOT = 0

CCSDS_OMM_VERS = 2.0
CREATION_DATE  = 
ORIGINATOR     = 

OBJECT_NAME    = SL-8 R/B
OBJECT_ID      = 1991-006B
CENTER_NAME    = EARTH
REF_FRAME      = TEME
TIME_SYSTEM    = UTC
MEAN_ELEMENT_THEORY = SGP/SGP4

EPOCH          = 2026-02-23T20:16:50.020032
MEAN_MOTION    = 13.77492748
ECCENTRICITY   = .0023661
INCLINATION    = 82.9458
RA_OF_ASC_NODE = 180.3377
ARG_OF_PERICENTER = 75.4238
MEAN_ANOMALY   = 93.0343

EPHEMERIS_TYPE = 0
CLASSIFICATION_TYPE = U
NORAD_CAT_ID   = 21088
ELEMENT_SET_NO = 999
REV_AT_EPOCH   = 76216
BSTAR          = .44318E-4
MEAN_MOTION_DOT = .6E-6
MEAN_MOTION_DDOT = 0

CCSDS_OMM_VERS = 2.0
CREATION_DATE  = 
ORIGINATOR     = 

OBJECT_NAME    = OKEAN-3
OBJECT_ID      = 1991-039A
CENTER_NAME    = EARTH
REF_FRAME      = TEME
TIME_SYSTEM    = UTC
MEAN_ELEMENT_THEORY = SGP/SGP4

EPOCH          = 2026-02-23T07:34:11.405856
MEAN_MOTION    = 15.04691593
ECCENTRICITY   = .00150763
INCLINATION    = 82.5205
RA_OF_ASC_NODE = 350.7657
ARG_OF_PERICENTER = 25.9068
MEAN_ANOMALY   = 334.2910

EPHEMERIS_TYPE = 0
CLASSIFICATION_TYPE = U
NORAD_CAT_ID   = 21397
ELEMENT_SET_NO = 999
REV_AT_EPOCH   = 86287
BSTAR          = .2779288E-3
MEAN_MOTION_DOT = .3947E-4
MEAN_MOTION_DDOT = 0

CCSDS_OMM_VERS = 2.0
CREATION_DATE  = 
ORIGINATOR     = 

OBJECT_NAME    = COSMOS 2151
OBJECT_ID      = 1991-042A
CENTER_NAME    = EARTH
REF_FRAME      = TEME
TIME_SYSTEM    = UTC
MEAN_ELEMENT_THEORY = SGP/SGP4

EPOCH          = 2026-02-23T17:48:26.017920
MEAN_MOTION    = 15.00046374
ECCENTRICITY   = .0014093
INCLINATION    = 82.4941
RA_OF_ASC_NODE = 97.1332
ARG_OF_PERICENTER = 105.3002
MEAN_ANOMALY   = 254.9781

EPHEMERIS_TYPE = 0
CLASSIFICATION_TYPE = U
NORAD_CAT_ID   = 21422
ELEMENT_SET_NO = 999
REV_AT_EPOCH   = 86110
BSTAR          = .12688E-3
MEAN_MOTION_DOT = .1609E-4
MEAN_MOTION_DDOT = 0

